#dV2019  9 30  0  0  0.00000000    8640 U+u   IGS14 FIT TUD 
## 2073  86400.00000000    10.00000000 58756 0.0000000000000
+    1   L47  0  0  0  0  0  0  0  0  0  0  0  0  0  0  0  0                          
+          0  0  0  0  0  0  0  0  0  0  0  0  0  0  0  0  0                          
+          0  0  0  0  0  0  0  0  0  0  0  0  0  0  0  0  0                          
+          0  0  0  0  0  0  0  0  0  0  0  0  0  0  0  0  0                          
+          0  0  0  0  0  0  0  0  0  0  0  0  0  0  0  0  0                          
++         0  0  0  0  0  0  0  0  0  0  0  0  0  0  0  0  0                          
++         0  0  0  0  0  0  0  0  0  0  0  0  0  0  0  0  0                          
++         0  0  0  0  0  0  0  0  0  0  0  0  0  0  0  0  0                          
++         0  0  0  0  0  0  0  0  0  0  0  0  0  0  0  0  0                          
++         0  0  0  0  0  0  0  0  0  0  0  0  0  0  0  0  0                          
%c M  cc GPS ccc cccc cccc cccc cccc ccccc ccccc ccccc ccccc                          
%c cc cc ccc ccc cccc cccc cccc cccc ccccc ccccc ccccc ccccc                          
%f  0.0000000  0.000000000  0.00000000000  0.000000000000000                          
%f  0.0000000  0.000000000  0.00000000000  0.000000000000000                          
%i    0    0    0    0      0      0      0      0         0                          
%i    0    0    0    0      0      0      0      0         0                          
/* Created by: RDOD_AR_WGT                                                            
/* Setup     : SWARMA.19.273_RDOD_AR.inp                                              
/* Executed  : 26-Oct-2021 08:51 UTC, by swarmgen@euclid2.lr.tudelft.nl               
/*                                                                                    
*  2019 09 30 05 59 20.00000000                             
PL47 -4124.4474200  5411.9097418   377.5262251 999999.999999
VL47  3762.5918484 -2590.4400770 76295.6994541 999999.999999
*  2019 09 30 05 59 30.00000000                             
PL47 -4120.4279690  5408.9766426   453.7964402 999999.999999
VL47  4276.0629311 -3275.8259292 76243.1223277 999999.999999
*  2019 09 30 05 59 40.00000000                             
PL47 -4115.8958000  5405.3579696   530.0092542 999999.999999
VL47  4788.0163807 -3961.5729100 76180.8984261 999999.999999
*  2019 09 30 05 59 50.00000000                             
PL47 -4110.8524639  5401.0534062   606.1550239 999999.999999
VL47  5298.3865641 -4647.5916334 76109.0351729 999999.999999
*  2019 09 30 06 00 00.00000000                             
PL47 -4105.2995762  5396.0627257   682.2241143 999999.999999
VL47  5807.1087106 -5333.7922854 76027.5412188 999999.999999
*  2019 09 30 06 00 10.00000000                             
PL47 -4099.2388176  5390.3857907   758.2068994 999999.999999
VL47  6314.1175901 -6020.0855985 75936.4263745 999999.999999
*  2019 09 30 06 00 20.00000000                             
PL47 -4092.6719335  5384.0225536   834.0937637 999999.999999
VL47  6819.3490351 -6706.3815928 75835.7015931 999999.999999
*  2019 09 30 06 00 30.00000000                             
PL47 -4085.6007336  5376.9730565   909.8751033 999999.999999
VL47  7322.7383086 -7392.5907378 75725.3790343 999999.999999
*  2019 09 30 06 00 40.00000000                             
PL47 -4078.0270923  5369.2374311   985.5413270 999999.999999
VL47  7824.2213936 -8078.6229844 75605.4721583 999999.999999
*  2019 09 30 06 00 50.00000000                             
PL47 -4069.9529473  5360.8158997  1061.0828577 999999.999999
VL47  8323.7350464 -8764.3878211 75475.9957803 999999.999999
*  2019 09 30 06 01 00.00000000                             
PL47 -4061.3802999  5351.7087745  1136.4901341 999999.999999
VL47  8821.2155760 -9449.7953112 75336.9660654 999999.999999
*  2019 09 30 06 01 10.00000000                             
PL47 -4052.3112147  5341.9164583  1211.7536112 999999.999999
VL47  9316.6004625-10134.7549368 75188.4004907 999999.999999
*  2019 09 30 06 01 20.00000000                             
PL47 -4042.7478185  5331.4394439  1286.8637627 999999.999999
VL47  9809.8268056-10819.1768092 75030.3178098 999999.999999
*  2019 09 30 06 01 30.00000000                             
PL47 -4032.6923013  5320.2783140  1361.8110811 999999.999999
VL47 10300.8326090-11502.9707120 74862.7380302 999999.999999
*  2019 09 30 06 01 40.00000000                             
PL47 -4022.1469139  5308.4337420  1436.5860801 999999.999999
VL47 10789.5567888-12186.0461084 74685.6823966 999999.999999
*  2019 09 30 06 01 50.00000000                             
PL47 -4011.1139687  5295.9064913  1511.1792948 999999.999999
VL47 11275.9379064-12868.3131110 74499.1733768 999999.999999
*  2019 09 30 06 02 00.00000000                             
PL47 -3999.5958392  5282.6974154  1585.5812836 999999.999999
VL47 11759.9157301-13549.6813042 74303.2346477 999999.999999
*  2019 09 30 06 02 10.00000000                             
PL47 -3987.5949586  5268.8074582  1659.7826291 999999.999999
VL47 12241.4296772-14230.0609261 74097.8910842 999999.999999
*  2019 09 30 06 02 20.00000000                             
PL47 -3975.1138210  5254.2376531  1733.7739395 999999.999999
VL47 12720.4200649-14909.3619199 73883.1687536 999999.999999
*  2019 09 30 06 02 30.00000000                             
PL47 -3962.1549792  5238.9891240  1807.5458494 999999.999999
VL47 13196.8281012-15587.4939395 73659.0949188 999999.999999
*  2019 09 30 06 02 40.00000000                             
PL47 -3948.7210453  5223.0630847  1881.0890216 999999.999999
VL47 13670.5946233-16264.3673126 73425.6980512 999999.999999
*  2019 09 30 06 02 50.00000000                             
PL47 -3934.8146898  5206.4608390  1954.3941478 999999.999999
VL47 14141.6616497-16939.8918909 73183.0078437 999999.999999
*  2019 09 30 06 03 00.00000000                             
PL47 -3920.4386413  5189.1837804  2027.4519498 999999.999999
VL47 14609.9708663-17613.9782298 72931.0552167 999999.999999
*  2019 09 30 06 03 10.00000000                             
PL47 -3905.5956865  5171.2333918  2100.2531814 999999.999999
VL47 15075.4648876-18286.5366702 72669.8723136 999999.999999
*  2019 09 30 06 03 20.00000000                             
PL47 -3890.2886687  5152.6112463  2172.7886288 999999.999999
VL47 15538.0872737-18957.4773578 72399.4924911 999999.999999
*  2019 09 30 06 03 30.00000000                             
PL47 -3874.5204881  5133.3190061  2245.0491123 999999.999999
VL47 15997.7813043-19626.7111931 72119.9503049 999999.999999
*  2019 09 30 06 03 40.00000000                             
PL47 -3858.2941007  5113.3584227  2317.0254872 999999.999999
VL47 16454.4915042-20294.1486956 71831.2814936 999999.999999
*  2019 09 30 06 03 50.00000000                             
PL47 -3841.6125182  5092.7313370  2388.7086453 999999.999999
VL47 16908.1621395-20959.7011447 71533.5229694 999999.999999
*  2019 09 30 06 04 00.00000000                             
PL47 -3824.4788079  5071.4396784  2460.0895159 999999.999999
VL47 17358.7384465-21623.2796618 71226.7128190 999999.999999
*  2019 09 30 06 04 10.00000000                             
PL47 -3806.8960907  5049.4854654  2531.1590668 999999.999999
VL47 17806.1666445-22284.7952255 70910.8903092 999999.999999
*  2019 09 30 06 04 20.00000000                             
PL47 -3788.8675420  5026.8708050  2601.9083059 999999.999999
VL47 18250.3927451-22944.1596116 70586.0958822 999999.999999
*  2019 09 30 06 04 30.00000000                             
PL47 -3770.3963902  5003.5978927  2672.3282818 999999.999999
VL47 18691.3640598-23601.2842981 70252.3711311 999999.999999
*  2019 09 30 06 04 40.00000000                             
PL47 -3751.4859164  4979.6690122  2742.4100856 999999.999999
VL47 19129.0277229-24256.0815972 69909.7587622 999999.999999
*  2019 09 30 06 04 50.00000000                             
PL47 -3732.1394546  4955.0865345  2812.1448514 999999.999999
VL47 19563.3318603-24908.4637642 69558.3025625 999999.999999
*  2019 09 30 06 05 00.00000000                             
PL47 -3712.3603895  4929.8529190  2881.5237577 999999.999999
VL47 19994.2255464-25558.3429958 69198.0473878 999999.999999
*  2019 09 30 06 05 10.00000000                             
PL47 -3692.1521574  4903.9707119  2950.5380285 999999.999999
VL47 20421.6575841-26205.6323125 68829.0391779 999999.999999
*  2019 09 30 06 05 20.00000000                             
PL47 -3671.5182449  4877.4425467  3019.1789341 999999.999999
VL47 20845.5779514-26850.2444524 68451.3249922 999999.999999
*  2019 09 30 06 05 30.00000000                             
PL47 -3650.4621888  4850.2711442  3087.4377925 999999.999999
VL47 21265.9363833-27492.0929579 68064.9530510 999999.999999
*  2019 09 30 06 05 40.00000000                             
PL47 -3628.9875759  4822.4593109  3155.3059707 999999.999999
VL47 21682.6835815-28131.0913242 67669.9727604 999999.999999
*  2019 09 30 06 05 50.00000000                             
PL47 -3607.0980415  4794.0099404  3222.7748854 999999.999999
VL47 22095.7712573-28767.1530404 67266.4347046 999999.999999
*  2019 09 30 06 06 00.00000000                             
PL47 -3584.7972694  4764.9260122  3289.8360048 999999.999999
VL47 22505.1510087-29400.1924958 66854.3906133 999999.999999
*  2019 09 30 06 06 10.00000000                             
PL47 -3562.0889911  4735.2105914  3356.4808489 999999.999999
VL47 22910.7757516-30030.1239333 66433.8933199 999999.999999
*  2019 09 30 06 06 20.00000000                             
PL47 -3538.9769853  4704.8668286  3422.7009916 999999.999999
VL47 23312.5983232-30656.8625060 66004.9967303 999999.999999
*  2019 09 30 06 06 30.00000000                             
PL47 -3515.4650773  4673.8979590  3488.4880609 999999.999999
VL47 23710.5726200-31280.3234192 65567.7558060 999999.999999
EOF                                                         
